{"type": "FeatureCollection", "features": [ {"type": "Feature", "properties": {"norad_id": 28659, "name": "DIRECTV 8", "group": "intelsat", "lat": -0.014233236640350203, "lon": -83.55286930598099, "alt_km": 35773.13639036274, "timestamp": "2025-12-02T21:34:00.940769+00:00", "meta": {"OBJECT_NAME": "DIRECTV 8", "OBJECT_ID": "2005-019A", "EPOCH": "2025-12-02T07:38:38.698080", "MEAN_MOTION": 1.00271214, "ECCENTRICITY": 0.0003242, "INCLINATION": 0.0129, "RA_OF_ASC_NODE": 291.5318, "ARG_OF_PERICENTER": 327.288, "MEAN_ANOMALY": 168.2298, "EPHEMERIS_TYPE": 0, "CLASSIFICATION_TYPE": "U", "NORAD_CAT_ID": 28659, "ELEMENT_SET_NO": 999, "REV_AT_EPOCH": 7509, "BSTAR": 0, "MEAN_MOTION_DOT": 2.2e-07, "MEAN_MOTION_DDOT": 0}, "tle": {"line1": "1 28659U 05019A   25336.31850345  .00000022  00000+0  00000+0 0  9995", "line2": "2 28659   0.0129 291.5318 0003242 327.2880 168.2298  1.00271214 75099"}}, "geometry": {"type": "Point", "coordinates": [-83.55286930598099, -0.014233236640350203]}}, {"type": "Feature", "properties": {"norad_id": 28702, "name": "GALAXY 28 (G-28)", "group": "intelsat", "lat": -1.9942644578639364, "lon": -53.25063047963357, "alt_km": 35778.59019793233, "timestamp": "2025-12-02T21:34:00.940793+00:00", "meta": {"OBJECT_NAME": "GALAXY 28 (G-28)", "OBJECT_ID": "2005-022A", "EPOCH": "2025-12-02T08:19:38.698752", "MEAN_MOTION": 1.00270622, "ECCENTRICITY": 0.0002664, "INCLINATION": 2.7921, "RA_OF_ASC_NODE": 81.3996, "ARG_OF_PERICENTER": 181.4969, "MEAN_ANOMALY": 204.7534, "EPHEMERIS_TYPE": 0, "CLASSIFICATION_TYPE": "U", "NORAD_CAT_ID": 28702, "ELEMENT_SET_NO": 999, "REV_AT_EPOCH": 5000, "BSTAR": 0, "MEAN_MOTION_DOT": -1.67e-06, "MEAN_MOTION_DDOT": 0}, "tle": {"line1": "1 28702U 05022A   25336.34697568 -.00000167  00000+0  00000+0 0  9998", "line2": "2 28702   2.7921  81.3996 0002664 181.4969 204.7534  1.00270622 50004"}}, "geometry": {"type": "Point", "coordinates": [-53.25063047963357, -1.9942644578639364]}}, {"type": "Feature", "properties": {"norad_id": 29236, "name": "GALAXY 16 (G-16)", "group": "intelsat", "lat": 0.01158679389684907, "lon": -63.512025198710994, "alt_km": 35777.84399015497, "timestamp": "2025-12-02T21:34:00.940809+00:00", "meta": {"OBJECT_NAME": "GALAXY 16 (G-16)", "OBJECT_ID": "2006-023A", "EPOCH": "2025-12-02T08:59:15.148032", "MEAN_MOTION": 1.00270257, "ECCENTRICITY": 0.0002853, "INCLINATION": 0.0257, "RA_OF_ASC_NODE": 222.7593, "ARG_OF_PERICENTER": 29.6366, "MEAN_ANOMALY": 214.8919, "EPHEMERIS_TYPE": 0, "CLASSIFICATION_TYPE": "U", "NORAD_CAT_ID": 29236, "ELEMENT_SET_NO": 999, "REV_AT_EPOCH": 7100, "BSTAR": 0, "MEAN_MOTION_DOT": -1.06e-06, "MEAN_MOTION_DDOT": 0}, "tle": {"line1": "1 29236U 06023A   25336.37448088 -.00000106  00000+0  00000+0 0  9990", "line2": "2 29236   0.0257 222.7593 0002853  29.6366 214.8919  1.00270257 71004"}}, "geometry": {"type": "Point", "coordinates": [-63.512025198710994, 0.01158679389684907]}}, {"type": "Feature", "properties": {"norad_id": 29494, "name": "DIRECTV 9S", "group": "intelsat", "lat": -0.9946840156102006, "lon": -65.71418033372548, "alt_km": 35777.01254216706, "timestamp": "2025-12-02T21:34:00.940821+00:00", "meta": {"OBJECT_NAME": "DIRECTV 9S", "OBJECT_ID": "2006-043A", "EPOCH": "2025-12-02T08:27:38.647296", "MEAN_MOTION": 1.00270673, "ECCENTRICITY": 0.0003154, "INCLINATION": 1.911, "RA_OF_ASC_NODE": 83.3217, "ARG_OF_PERICENTER": 166.4049, "MEAN_ANOMALY": 207.4424, "EPHEMERIS_TYPE": 0, "CLASSIFICATION_TYPE": "U", "NORAD_CAT_ID": 29494, "ELEMENT_SET_NO": 999, "REV_AT_EPOCH": 4941, "BSTAR": 0, "MEAN_MOTION_DOT": -9.3e-07, "MEAN_MOTION_DDOT": 0}, "tle": {"line1": "1 29494U 06043A   25336.35253064 -.00000093  00000+0  00000+0 0  9999", "line2": "2 29494   1.9110  83.3217 0003154 166.4049 207.4424  1.00270673 49416"}}, "geometry": {"type": "Point", "coordinates": [-65.71418033372548, -0.9946840156102006]}}, {"type": "Feature", "properties": {"norad_id": 31307, "name": "GALAXY 17 (G-17)", "group": "intelsat", "lat": -1.8456972569557204, "lon": -49.478436154205966, "alt_km": 35778.88431665453, "timestamp": "2025-12-02T21:34:00.940833+00:00", "meta": {"OBJECT_NAME": "GALAXY 17 (G-17)", "OBJECT_ID": "2007-016B", "EPOCH": "2025-12-02T08:14:34.376352", "MEAN_MOTION": 1.00270476, "ECCENTRICITY": 0.0006097, "INCLINATION": 2.4715, "RA_OF_ASC_NODE": 82.4066, "ARG_OF_PERICENTER": 155.6776, "MEAN_ANOMALY": 232.0142, "EPHEMERIS_TYPE": 0, "CLASSIFICATION_TYPE": "U", "NORAD_CAT_ID": 31307, "ELEMENT_SET_NO": 999, "REV_AT_EPOCH": 6783, "BSTAR": 0, "MEAN_MOTION_DOT": -1.86e-06, "MEAN_MOTION_DDOT": 0}, "tle": {"line1": "1 31307U 07016B   25336.34345343 -.00000186  00000+0  00000+0 0  9990", "line2": "2 31307   2.4715  82.4066 0006097 155.6776 232.0142  1.00270476 67835"}}, "geometry": {"type": "Point", "coordinates": [-49.478436154205966, -1.8456972569557204]}}, {"type": "Feature", "properties": {"norad_id": 31862, "name": "DIRECTV 10", "group": "intelsat", "lat": 0.000847585919786237, "lon": -67.31611762507478, "alt_km": 35786.30195258179, "timestamp": "2025-12-02T21:34:00.940846+00:00", "meta": {"OBJECT_NAME": "DIRECTV 10", "OBJECT_ID": "2007-032A", "EPOCH": "2025-12-02T12:21:09.016416", "MEAN_MOTION": 1.00270723, "ECCENTRICITY": 4.01e-05, "INCLINATION": 0.0006, "RA_OF_ASC_NODE": 88.1067, "ARG_OF_PERICENTER": 117.0957, "MEAN_ANOMALY": 308.9108, "EPHEMERIS_TYPE": 0, "CLASSIFICATION_TYPE": "U", "NORAD_CAT_ID": 31862, "ELEMENT_SET_NO": 999, "REV_AT_EPOCH": 4362, "BSTAR": 0, "MEAN_MOTION_DOT": -8.3e-07, "MEAN_MOTION_DDOT": 0}, "tle": {"line1": "1 31862U 07032A   25336.51468769 -.00000083  00000+0  00000+0 0  9997", "line2": "2 31862   0.0006  88.1067 0000401 117.0957 308.9108  1.00270723 43629"}}, "geometry": {"type": "Point", "coordinates": [-67.31611762507478, 0.000847585919786237]}}, {"type": "Feature", "properties": {"norad_id": 32253, "name": "INTELSAT 11 (IS-11)", "group": "intelsat", "lat": -2.108440800699974, "lon": -55.43310592108505, "alt_km": 36115.187394839224, "timestamp": "2025-12-02T21:34:00.940858+00:00", "meta": {"OBJECT_NAME": "INTELSAT 11 (IS-11)", "OBJECT_ID": "2007-044B", "EPOCH": "2025-12-02T08:13:34.470912", "MEAN_MOTION": 0.99047467, "ECCENTRICITY": 0.0009251, "INCLINATION": 3.0507, "RA_OF_ASC_NODE": 81.0936, "ARG_OF_PERICENTER": 160.4094, "MEAN_ANOMALY": 224.8233, "EPHEMERIS_TYPE": 0, "CLASSIFICATION_TYPE": "U", "NORAD_CAT_ID": 32253, "ELEMENT_SET_NO": 999, "REV_AT_EPOCH": 6650, "BSTAR": 0, "MEAN_MOTION_DOT": -1.2e-07, "MEAN_MOTION_DDOT": 0}, "tle": {"line1": "1 32253U 07044B   25336.34276008 -.00000012  00000+0  00000+0 0  9991", "line2": "2 32253   3.0507  81.0936 0009251 160.4094 224.8233  0.99047467 66507"}}, "geometry": {"type": "Point", "coordinates": [-55.43310592108505, -2.108440800699974]}}, {"type": "Feature", "properties": {"norad_id": 32388, "name": "HORIZONS-2", "group": "intelsat", "lat": -1.7867749093726322, "lon": -38.277603694737216, "alt_km": 35775.48386224714, "timestamp": "2025-12-02T21:34:00.940870+00:00", "meta": {"OBJECT_NAME": "HORIZONS-2", "OBJECT_ID": "2007-063B", "EPOCH": "2025-12-02T08:17:49.064064", "MEAN_MOTION": 1.00272468, "ECCENTRICITY": 0.0004907, "INCLINATION": 2.0922, "RA_OF_ASC_NODE": 83.0757, "ARG_OF_PERICENTER": 179.7526, "MEAN_ANOMALY": 219.2901, "EPHEMERIS_TYPE": 0, "CLASSIFICATION_TYPE": "U", "NORAD_CAT_ID": 32388, "ELEMENT_SET_NO": 999, "REV_AT_EPOCH": 6584, "BSTAR": 0, "MEAN_MOTION_DOT": -2.33e-06, "MEAN_MOTION_DDOT": 0}, "tle": {"line1": "1 32388U 07063B   25336.34570676 -.00000233  00000+0  00000+0 0  9994", "line2": "2 32388   2.0922  83.0757 0004907 179.7526 219.2901  1.00272468 65845"}}, "geometry": {"type": "Point", "coordinates": [-38.277603694737216, -1.7867749093726322]}}, {"type": "Feature", "properties": {"norad_id": 32729, "name": "DIRECTV 11", "group": "intelsat", "lat": 2.344679395733921e-05, "lon": -63.71134986435881, "alt_km": 35786.85340264307, "timestamp": "2025-12-02T21:34:00.940882+00:00", "meta": {"OBJECT_NAME": "DIRECTV 11", "OBJECT_ID": "2008-013A", "EPOCH": "2025-12-02T10:08:34.464768", "MEAN_MOTION": 1.0027113, "ECCENTRICITY": 4.09e-05, "INCLINATION": 0.0114, "RA_OF_ASC_NODE": 215.6397, "ARG_OF_PERICENTER": 330.8354, "MEAN_ANOMALY": 298.008, "EPHEMERIS_TYPE": 0, "CLASSIFICATION_TYPE": "U", "NORAD_CAT_ID": 32729, "ELEMENT_SET_NO": 999, "REV_AT_EPOCH": 4362, "BSTAR": 0, "MEAN_MOTION_DOT": -1.05e-06, "MEAN_MOTION_DDOT": 0}, "tle": {"line1": "1 32729U 08013A   25336.42262112 -.00000105  00000+0  00000+0 0  9999", "line2": "2 32729   0.0114 215.6397 0000409 330.8354 298.0080  1.00271130 43620"}}, "geometry": {"type": "Point", "coordinates": [-63.71134986435881, 2.344679395733921e-05]}}, {"type": "Feature", "properties": {"norad_id": 32951, "name": "GALAXY 18 (G-18)", "group": "intelsat", "lat": -0.03713761524275164, "lon": -87.53939623519449, "alt_km": 35772.128662882125, "timestamp": "2025-12-02T21:34:00.940894+00:00", "meta": {"OBJECT_NAME": "GALAXY 18 (G-18)", "OBJECT_ID": "2008-024A", "EPOCH": "2025-12-02T10:45:38.709216", "MEAN_MOTION": 1.00272743, "ECCENTRICITY": 0.0003389, "INCLINATION": 0.0216, "RA_OF_ASC_NODE": 343.0458, "ARG_OF_PERICENTER": 271.5614, "MEAN_ANOMALY": 215.3306, "EPHEMERIS_TYPE": 0, "CLASSIFICATION_TYPE": "U", "NORAD_CAT_ID": 32951, "ELEMENT_SET_NO": 999, "REV_AT_EPOCH": 4388, "BSTAR": 0, "MEAN_MOTION_DOT": 0, "MEAN_MOTION_DDOT": 0}, "tle": {"line1": "1 32951U 08024A   25336.44836469  .00000000  00000+0  00000+0 0  9995", "line2": "2 32951   0.0216 343.0458 0003389 271.5614 215.3306  1.00272743 43886"}}, "geometry": {"type": "Point", "coordinates": [-87.53939623519449, -0.03713761524275164]}}]}